NORAD_CAT_ID,OBJECT_NAME,OBJECT_TYPE,EPOCH,MEAN_MOTION,ECCENTRICITY,INCLINATION,RA_OF_ASC_NODE,ARG_OF_PERICENTER,MEAN_ANOMALY,BSTAR,MEAN_MOTION_DOT,MEAN_MOTION_DDOT,TLE_LINE0,TLE_LINE1,TLE_LINE2,SEMIMAJOR_AXIS,PERIOD,APOGEE,PERIGEE,DECAYED
49752.0,STARLINK-3209,PAYLOAD,2022-10-26 20:42:33,15.08784876,0.0001682,53.217,260.0416,36.6663,323.4444,0.00078379,0.00012189,0.0,0 STARLINK-3209,1 49752U 21115AE  22299.86288631  .00012189  00000-0  78379-3 0  9991,2 49752  53.2170 260.0416 0001682  36.6663 323.4444 15.08784876 51120,6918.049,95.441,541.078,538.75,0.0
49752.0,STARLINK-3209,PAYLOAD,2022-10-27 03:04:04,15.08839847,0.0002014,53.217,258.8522,39.8107,320.3033,0.00014472,2.016e-05,0.0,0 STARLINK-3209,1 49752U 21115AE  22300.12782912  .00002016  00000-0  14472-3 0  9996,2 49752  53.2170 258.8522 0002014  39.8107 320.3033 15.08839847 51164,6917.880999999999,95.438,541.139,538.3530000000002,0.0
49752.0,STARLINK-3209,PAYLOAD,2022-10-27 06:14:50,15.08844776,0.0002031,53.217,258.2574,40.3904,319.7239,0.00018182,2.607e-05,0.0,0 STARLINK-3209,1 49752U 21115AE  22300.26030498  .00002607  00000-0  18182-3 0  9994,2 49752  53.2170 258.2574 0002031  40.3904 319.7239 15.08844776 50072,6917.866,95.437,541.136,538.326,0.0
49752.0,STARLINK-3209,PAYLOAD,2022-10-27 14:11:45,15.08847907,0.0002065,53.2172,256.7704,41.1435,318.9713,0.00016405,2.324e-05,0.0,0 STARLINK-3209,1 49752U 21115AE  22300.59150277  .00002324  00000-0  16405-3 0  9990,2 49752  53.2172 256.7704 0002065  41.1435 318.9713 15.08847907 51233,6917.856,95.437,541.15,538.293,0.0
49752.0,STARLINK-3209,PAYLOAD,2022-10-28 04:30:14,15.0884651,0.0002137,53.217,254.0939,41.7698,318.3457,0.00017204,2.451e-05,0.0,0 STARLINK-3209,1 49752U 21115AE  22301.18766259  .00002451  00000-0  17204-3 0  9998,2 49752  53.2170 254.0939 0002137  41.7698 318.3457 15.08846510 50214,6917.86,95.437,541.2040000000002,538.247,0.0
49752.0,STARLINK-3209,PAYLOAD,2022-10-28 14:02:32,15.08847711,0.0002108,53.2171,252.3101,43.9068,316.2091,0.00013083,1.795e-05,0.0,0 STARLINK-3209,1 49752U 21115AE  22301.58510174  .00001795  00000-0  13083-3 0  9996,2 49752  53.2171 252.3101 0002108  43.9068 316.2091 15.08847711 50271,6917.857,95.437,541.18,538.264,0.0
49752.0,STARLINK-3209,PAYLOAD,2022-10-29 05:56:24,15.08845691,0.0002159,53.2173,249.3351,45.0568,315.0599,-4.0335e-05,-9.3e-06,0.0,0 STARLINK-3209,1 49752U 21115AE  22302.24750411 -.00000930  00000-0 -40335-4 0  9993,2 49752  53.2173 249.3351 0002159  45.0568 315.0599 15.08845691 50376,6917.863,95.437,541.222,538.234,0.0
49752.0,STARLINK-3209,PAYLOAD,2022-10-29 20:14:52,15.08852383,0.0002215,53.2176,246.6594,46.8733,313.2444,-4.9095e-05,-1.07e-05,0.0,0 STARLINK-3209,1 49752U 21115AE  22302.84365782 -.00001070  00000-0 -49095-4 0  9990,2 49752  53.2176 246.6594 0002215  46.8733 313.2444 15.08852383 50469,6917.843000000003,95.437,541.24,538.175,0.0
49752.0,STARLINK-3209,PAYLOAD,2022-10-30 02:36:23,15.08857432,0.0002134999999999,53.2172,245.4699,48.0532,312.0641,1.2067e-05,-9.6e-07,0.0,0 STARLINK-3209,1 49752U 21115AE  22303.10860973 -.00000096  00000-0  12067-4 0  9997,2 49752  53.2172 245.4699 0002135  48.0532 312.0641 15.08857432 50501,6917.8269999999975,95.436,541.169,538.215,0.0
49752.0,STARLINK-3209,PAYLOAD,2022-10-30 20:05:38,15.08847197,0.0002094,53.2163,242.1988,46.8275,313.2891,4.4823e-05,4.25e-06,0.0,0 STARLINK-3209,1 49752U 21115AE  22303.83725008  .00000425  00000-0  44823-4 0  9996,2 49752  53.2163 242.1988 0002094  46.8275 313.2891 15.08847197 50619,6917.858,95.437,541.172,538.275,0.0
49752.0,STARLINK-3209,PAYLOAD,2022-10-31 05:37:59,15.08821633,0.0002094,53.2181,240.4165,42.7071,317.4084,-8.507299999999999e-05,-1.641e-05,0.0,0 STARLINK-3209,1 49752U 21115AE  22304.23471104 -.00001641  00000-0 -85073-4 0  9991,2 49752  53.2181 240.4165 0002094  42.7071 317.4084 15.08821633 50679,6917.937,95.439,541.25,538.3530000000002,0.0
49752.0,STARLINK-3209,PAYLOAD,2022-10-31 19:56:27,15.08826086,0.0002399,53.2183,237.7421,37.821,322.295,-0.00010783,-2.003e-05,0.0,0 STARLINK-3209,1 49752U 21115AE  22304.83087455 -.00002003  00000-0 -10783-3 0  9997,2 49752  53.2183 237.7421 0002399  37.8210 322.2950 15.08826086 50766,6917.9230000000025,95.438,541.448,538.128,0.0
49752.0,STARLINK-3209,PAYLOAD,2022-11-01 02:17:59,15.08833914,0.0002073999999999,53.2179,236.5511,42.809,317.3063,-2.4889e-05,-6.84e-06,0.0,0 STARLINK-3209,1 49752U 21115AE  22305.09582693 -.00000684  00000-0 -24889-4 0  9996,2 49752  53.2179 236.5511 0002074  42.8090 317.3063 15.08833914 51916,6917.899,95.438,541.1990000000002,538.3290000000002,0.0
49752.0,STARLINK-3209,PAYLOAD,2022-11-01 05:28:45,15.0884538,0.0002089,53.217,235.9554,45.2431,314.8731,5.107e-06,-2.07e-06,0.0,0 STARLINK-3209,1 49752U 21115AE  22305.22829920 -.00000207  00000-0  51070-5 0  9991,2 49752  53.2170 235.9554 0002089  45.2431 314.8731 15.08845380 50822,6917.864000000001,95.437,541.174,538.284,0.0
49752.0,STARLINK-3209,PAYLOAD,2022-11-01 19:47:13,15.08831389,0.0002003,53.217,233.2784,42.2952,317.8194,0.00018464,2.651e-05,0.0,0 STARLINK-3209,1 49752U 21115AE  22305.82446323  .00002651  00000-0  18464-3 0  9991,2 49752  53.2170 233.2784 0002003  42.2952 317.8194 15.08831389 52023,6917.906999999997,95.438,541.1569999999998,538.386,0.0
49752.0,STARLINK-3209,PAYLOAD,2022-11-02 11:41:05,15.08823519,0.0001685,53.2168,230.3039,47.5104,312.603,0.0002098,3.051e-05,0.0,0 STARLINK-3209,1 49752U 21115AE  22306.48687267  .00003051  00000-0  20980-3 0  9999,2 49752  53.2168 230.3039 0001685  47.5104 312.6030 15.08823519 51019,6917.931,95.439,540.961,538.63,0.0
49752.0,STARLINK-3209,PAYLOAD,2022-11-03 03:34:57,15.08833153,0.0001959,53.2191,227.3346,51.5481,308.5687,1.3285e-05,-7.7e-07,0.0,0 STARLINK-3209,1 49752U 21115AE  22307.14927979 -.00000077  00000-0  13285-4 0  9997,2 49752  53.2191 227.3346 0001959  51.5481 308.5687 15.08833153 51117,6917.901,95.438,541.122,538.411,0.0
49752.0,STARLINK-3209,PAYLOAD,2022-11-04 03:25:42,15.0886096,0.0001852,53.2176,222.8719,51.8058,308.3101,0.00024498,3.615e-05,0.0,0 STARLINK-3209,1 49752U 21115AE  22308.14285426  .00003615  00000-0  24498-3 0  9999,2 49752  53.2176 222.8719 0001852  51.8058 308.3101 15.08860960 52373,6917.816,95.436,540.9630000000002,538.4,0.0
49752.0,STARLINK-3209,PAYLOAD,2022-11-05 03:16:30,15.08848831,0.000199,53.2162,218.4094,43.3556,316.7592,6.104899999999999e-05,6.84e-06,0.0,0 STARLINK-3209,1 49752U 21115AE  22309.13645926  .00000684  00000-0  61049-4 0  9991,2 49752  53.2162 218.4094 0001990  43.3556 316.7592 15.08848831 52524,6917.853,95.437,541.095,538.342,0.0
49752.0,STARLINK-3209,PAYLOAD,2022-11-05 12:48:49,15.08840593,0.0002025,53.2151,216.6281,52.5485,307.5691,-0.0002832,-4.793e-05,0.0,0 STARLINK-3209,1 49752U 21115AE  22309.53390381 -.00004793  00000-0 -28320-3 0  9998,2 49752  53.2151 216.6281 0002025  52.5485 307.5691 15.08840593 51471,6917.879,95.438,541.144,538.3430000000002,0.0
49752.0,STARLINK-3209,PAYLOAD,2022-11-06 01:31:55,15.08819005,0.0002205,53.2172,214.2459,46.5328,313.5848,-0.00041779,-6.928e-05,0.0,0 STARLINK-3209,1 49752U 21115AE  22310.06384003 -.00006928  00000-0 -41779-3 0  9997,2 49752  53.2172 214.2459 0002205  46.5328 313.5848 15.08819005 52661,6917.945,95.439,541.335,538.284,0.0
49752.0,STARLINK-3209,PAYLOAD,2022-11-06 19:01:10,15.08829476,0.0002004,53.2162,210.9767,47.3052,312.8109,6.9881e-05,8.24e-06,0.0,0 STARLINK-3209,1 49752U 21115AE  22310.79248074  .00000824  00000-0  69881-4 0  9996,2 49752  53.2162 210.9767 0002004  47.3052 312.8109 15.08829476 52772,6917.913000000001,95.438,541.164,538.391,0.0
49752.0,STARLINK-3209,PAYLOAD,2022-11-07 20:27:21,15.08827452,0.0001897,53.2167,206.2197,45.5812,314.5335,0.00036724,5.559e-05,0.0,0 STARLINK-3209,1 49752U 21115AE  22311.85232692  .00005559  00000-0  36724-3 0  9992,2 49752  53.2167 206.2197 0001897  45.5812 314.5335 15.08827452 52935,6917.919,95.438,541.096,538.471,0.0
49752.0,STARLINK-3209,PAYLOAD,2022-11-08 02:48:53,15.08851644,0.0002068,53.2156,205.0294,45.8709,314.2453,0.00057637,8.9e-05,0.0,0 STARLINK-3209,1 49752U 21115AE  22312.11728321  .00008900  00000-0  57637-3 0  9990,2 49752  53.2156 205.0294 0002068  45.8709 314.2453 15.08851644 52979,6917.845,95.437,541.14,538.279,0.0
49752.0,STARLINK-3209,PAYLOAD,2022-11-09 02:39:39,15.088442,0.0001505,53.2153,200.5694,45.5762,314.5353,7.0851e-05,8.400000000000001e-06,0.0,0 STARLINK-3209,1 49752U 21115AE  22313.11087523  .00000840  00000-0  70851-4 0  9992,2 49752  53.2153 200.5694 0001505  45.5762 314.5353 15.08844200 53121,6917.868,95.437,540.774,538.691,0.0
49752.0,STARLINK-3209,PAYLOAD,2022-11-09 04:15:02,15.08845155,0.0002129,53.216,200.272,39.8867,320.2282,8.3781e-05,1.046e-05,0.0,0 STARLINK-3209,1 49752U 21115AE  22313.17711722  .00001046  00000-0  83781-4 0  9998,2 49752  53.2160 200.2720 0002129  39.8867 320.2282 15.08845155 52024,6917.865,95.437,541.202,538.257,0.0
49752.0,STARLINK-3209,PAYLOAD,2022-11-09 20:08:54,15.08842587,0.0001771999999999,53.2163,197.2979,41.317,318.7956,8.1628e-05,1.011e-05,0.0,0 STARLINK-3209,1 49752U 21115AE  22313.83951470  .00001011  00000-0  81628-4 0  9997,2 49752  53.2163 197.2979 0001772  41.3170 318.7956 15.08842587 52123,6917.871999999999,95.437,540.9630000000002,538.512,0.0
49752.0,STARLINK-3209,PAYLOAD,2022-11-10 04:05:49,15.08835397,0.0002087,53.2158,195.8114,39.6781,320.4363,-0.00027033,-4.588e-05,0.0,0 STARLINK-3209,1 49752U 21115AE  22314.17071684 -.00004588  00000-0 -27033-3 0  9998,2 49752  53.2158 195.8114 0002087  39.6781 320.4363 15.08835397 53281,6917.894,95.438,541.203,538.316,0.0
49752.0,STARLINK-3209,PAYLOAD,2022-11-10 08:51:59,15.0883348,0.0002149,53.216,194.9193,44.1323,315.9840000000001,-0.00025441,-4.334e-05,0.0,0 STARLINK-3209,1 49752U 21115AE  22314.36943861 -.00004334  00000-0 -25441-3 0  9994,2 49752  53.2160 194.9193 0002149  44.1323 315.9840 15.08833480 52204,6917.9,95.438,541.252,538.279,0.0
